STARLINK-32080          
1 59683U 24086B   26068.40814716  .00001583  00000+0  67046-4 0  9997
2 59683  43.0020  65.3845 0000768 267.2778  92.7986 15.27565794104033
FLOCK 4G-3              
1 62639U 25009AG  26068.80174065  .00011494  00000+0  43389-3 0  9993
2 62639  97.4062 151.4068 0001320 293.2042  66.9058 15.27179310 63727
